"CCSDS_OMM_VERS","COMMENT","CREATION_DATE","ORIGINATOR","OBJECT_NAME","OBJECT_ID","CENTER_NAME","REF_FRAME","TIME_SYSTEM","MEAN_ELEMENT_THEORY","EPOCH","MEAN_MOTION","ECCENTRICITY","INCLINATION","RA_OF_ASC_NODE","ARG_OF_PERICENTER","MEAN_ANOMALY","EPHEMERIS_TYPE","CLASSIFICATION_TYPE","NORAD_CAT_ID","ELEMENT_SET_NO","REV_AT_EPOCH","BSTAR","MEAN_MOTION_DOT","MEAN_MOTION_DDOT","SEMIMAJOR_AXIS","PERIOD","APOAPSIS","PERIAPSIS","OBJECT_TYPE","RCS_SIZE","COUNTRY_CODE","LAUNCH_DATE","SITE","DECAY_DATE","FILE","GP_ID","TLE_LINE0","TLE_LINE1","TLE_LINE2"
"2.0","GENERATED VIA SPACE-TRACK.ORG API","2023-06-16T14:16:11","18 SPCS","CARTOSAT 3","2019-081A","EARTH","TEME","UTC","SGP4","2023-06-16T10:41:24.567072","15.19358329","0.00116430","97.3464","225.4224","31.9225","328.2713","0","U","44804","999","19690","0.00028037000000","0.00005871","0.0000000000000","6885.916","94.777","515.798","499.763","PAYLOAD","LARGE","IND","2019-11-27","SRI",null,"3934359","234031777","0 CARTOSAT 3","1 44804U 19081A   23167.44542323  .00005871  00000-0  28037-3 0  9999","2 44804  97.3464 225.4224 0011643  31.9225 328.2713 15.19358329196900"
"2.0","GENERATED VIA SPACE-TRACK.ORG API","2023-06-16T20:29:05","18 SPCS","CARTOSAT 3","2019-081A","EARTH","TEME","UTC","SGP4","2023-06-16T12:16:14.788128","15.19359659","0.00116420","97.3464","225.4865","31.6832","328.5102","0","U","44804","999","19696","0.00028781000000","0.00006029","0.0000000000000","6885.912","94.777","515.793","499.760","PAYLOAD","LARGE","IND","2019-11-27","SRI",null,"3934686","234057088","0 CARTOSAT 3","1 44804U 19081A   23167.51128227  .00006029  00000-0  28781-3 0  9992","2 44804  97.3464 225.4865 0011642  31.6832 328.5102 15.19359659196969"
"2.0","GENERATED VIA SPACE-TRACK.ORG API","2023-06-16T22:16:11","18 SPCS","CARTOSAT 3","2019-081A","EARTH","TEME","UTC","SGP4","2023-06-16T15:25:55.255296","15.19361299","0.00116210","97.3464","225.6147","31.2813","328.9111","0","U","44804","999","19693","0.00028849000000","0.00006044","0.0000000000000","6885.907","94.777","515.774","499.770","PAYLOAD","LARGE","IND","2019-11-27","SRI",null,"3934691","234067149","0 CARTOSAT 3","1 44804U 19081A   23167.64300064  .00006044  00000-0  28849-3 0  9999","2 44804  97.3464 225.6147 0011621  31.2813 328.9111 15.19361299196930"
"2.0","GENERATED VIA SPACE-TRACK.ORG API","2023-06-17T02:08:10","18 SPCS","CARTOSAT 3","2019-081A","EARTH","TEME","UTC","SGP4","2023-06-16T18:35:35.706912","15.19362506","0.00115990","97.3464","225.7429","30.9263","329.2652","0","U","44804","999","19700","0.00028032000000","0.00005871","0.0000000000000","6885.903","94.777","515.755","499.781","PAYLOAD","LARGE","IND","2019-11-27","SRI",null,"3934949","234089981","0 CARTOSAT 3","1 44804U 19081A   23167.77471883  .00005871  00000-0  28032-3 0  9992","2 44804  97.3464 225.7429 0011599  30.9263 329.2652 15.19362506197008"
"2.0","GENERATED VIA SPACE-TRACK.ORG API","2023-06-17T06:16:11","18 SPCS","CARTOSAT 3","2019-081A","EARTH","TEME","UTC","SGP4","2023-06-17T02:29:46.788000","15.19366583","0.00115780","97.3463","226.0634","29.8972","330.2922","0","U","44804","999","19700","0.00027527000000","0.00005764","0.0000000000000","6885.891","94.776","515.728","499.783","PAYLOAD","LARGE","IND","2019-11-27","SRI",null,"3934956","234099370","0 CARTOSAT 3","1 44804U 19081A   23168.10401375  .00005764  00000-0  27527-3 0  9998","2 44804  97.3463 226.0634 0011578  29.8972 330.2922 15.19366583197001"
"2.0","GENERATED VIA SPACE-TRACK.ORG API","2023-06-17T14:16:11","18 SPCS","CARTOSAT 3","2019-081A","EARTH","TEME","UTC","SGP4","2023-06-17T10:23:57.811200","15.19369385","0.00115490","97.3463","226.3837","28.7782","331.4088","0","U","44804","999","19705","0.00024956000000","0.00005220","0.0000000000000","6885.882","94.776","515.700","499.795","PAYLOAD","LARGE","IND","2019-11-27","SRI",null,"3935295","234107605","0 CARTOSAT 3","1 44804U 19081A   23168.43330800  .00005220  00000-0  24956-3 0  9998","2 44804  97.3463 226.3837 0011549  28.7782 331.4088 15.19369385197058"
"2.0","GENERATED VIA SPACE-TRACK.ORG API","2023-06-17T17:40:33","18 SPCS","CARTOSAT 3","2019-081A","EARTH","TEME","UTC","SGP4","2023-06-17T11:58:47.995968","15.19370478","0.00115400","97.3462","226.4478","28.5705","331.6160","0","U","44804","999","19711","0.00025259000000","0.00005284","0.0000000000000","6885.879","94.776","515.690","499.798","PAYLOAD","LARGE","IND","2019-11-27","SRI",null,"3935591","234131879","0 CARTOSAT 3","1 44804U 19081A   23168.49916662  .00005284  00000-0  25259-3 0  9997","2 44804  97.3462 226.4478 0011540  28.5705 331.6160 15.19370478197118"
"2.0","GENERATED VIA SPACE-TRACK.ORG API","2023-06-17T22:16:12","18 SPCS","CARTOSAT 3","2019-081A","EARTH","TEME","UTC","SGP4","2023-06-17T18:18:08.739360","15.19373300","0.00115110","97.3462","226.7042","27.7104","332.4742","0","U","44804","999","19710","0.00023832000000","0.00004982","0.0000000000000","6885.870","94.776","515.662","499.809","PAYLOAD","LARGE","IND","2019-11-27","SRI",null,"3935598","234141927","0 CARTOSAT 3","1 44804U 19081A   23168.76260115  .00004982  00000-0  23832-3 0  9991","2 44804  97.3462 226.7042 0011511  27.7104 332.4742 15.19373300197101"
"2.0","GENERATED VIA SPACE-TRACK.ORG API","2023-06-18T02:21:36","18 SPCS","CARTOSAT 3","2019-081A","EARTH","TEME","UTC","SGP4","2023-06-17T21:27:49.090752","15.19374865","0.00114900","97.3462","226.8324","27.2828","332.9008","0","U","44804","999","19717","0.00023678000000","0.00004950","0.0000000000000","6885.866","94.776","515.643","499.819","PAYLOAD","LARGE","IND","2019-11-27","SRI",null,"3935891","234165961","0 CARTOSAT 3","1 44804U 19081A   23168.89431818  .00004950  00000-0  23678-3 0  9998","2 44804  97.3462 226.8324 0011490  27.2828 332.9008 15.19374865197173"
"2.0","GENERATED VIA SPACE-TRACK.ORG API","2023-06-18T06:26:12","18 SPCS","CARTOSAT 3","2019-081A","EARTH","TEME","UTC","SGP4","2023-06-18T02:12:19.605312","15.19376998","0.00114780","97.3461","227.0246","26.6671","333.5152","0","U","44804","999","19715","0.00022832000000","0.00004771","0.0000000000000","6885.859","94.776","515.628","499.821","PAYLOAD","LARGE","IND","2019-11-27","SRI",null,"3935913","234176816","0 CARTOSAT 3","1 44804U 19081A   23169.09189358  .00004771  00000-0  22832-3 0  9992","2 44804  97.3461 227.0246 0011478  26.6671 333.5152 15.19376998197157"
"2.0","GENERATED VIA SPACE-TRACK.ORG API","2023-06-18T14:26:13","18 SPCS","CARTOSAT 3","2019-081A","EARTH","TEME","UTC","SGP4","2023-06-18T08:31:40.261440","15.19379306","0.00114450","97.3460","227.2810","25.6688","334.5112","0","U","44804","999","19719","0.00022659000000","0.00004734","0.0000000000000","6885.852","94.776","515.598","499.836","PAYLOAD","LARGE","IND","2019-11-27","SRI",null,"3936176","234182446","0 CARTOSAT 3","1 44804U 19081A   23169.35532710  .00004734  00000-0  22659-3 0  9991","2 44804  97.3460 227.2810 0011445  25.6688 334.5112 15.19379306197193"
"2.0","GENERATED VIA SPACE-TRACK.ORG API","2023-06-18T17:49:39","18 SPCS","CARTOSAT 3","2019-081A","EARTH","TEME","UTC","SGP4","2023-06-18T11:41:20.569632","15.19380689","0.00114300","97.3460","227.4091","25.2556","334.9235","0","U","44804","999","19726","0.00022261000000","0.00004650","0.0000000000000","6885.848","94.775","515.584","499.843","PAYLOAD","LARGE","IND","2019-11-27","SRI",null,"3936420","234206636","0 CARTOSAT 3","1 44804U 19081A   23169.48704363  .00004650  00000-0  22261-3 0  9996","2 44804  97.3460 227.4091 0011430  25.2556 334.9235 15.19380689197264"
"2.0","GENERATED VIA SPACE-TRACK.ORG API","2023-06-18T22:16:12","18 SPCS","CARTOSAT 3","2019-081A","EARTH","TEME","UTC","SGP4","2023-06-18T18:00:41.160096","15.19383221","0.00114050","97.3459","227.6654","24.3947","335.7825","0","U","44804","999","19725","0.00021253000000","0.00004437","0.0000000000000","6885.840","94.775","515.559","499.852","PAYLOAD","LARGE","IND","2019-11-27","SRI",null,"3936427","234216199","0 CARTOSAT 3","1 44804U 19081A   23169.75047639  .00004437  00000-0  21253-3 0  9995","2 44804  97.3459 227.6654 0011405  24.3947 335.7825 15.19383221197253"
"2.0","GENERATED VIA SPACE-TRACK.ORG API","2023-06-19T03:02:09","18 SPCS","CARTOSAT 3","2019-081A","EARTH","TEME","UTC","SGP4","2023-06-18T19:35:31.299072","15.19383874","0.00113980","97.3459","227.7295","24.1326","336.0441","0","U","44804","999","19731","0.00021113000000","0.00004407","0.0000000000000","6885.839","94.775","515.552","499.855","PAYLOAD","LARGE","IND","2019-11-27","SRI",null,"3936745","234241621","0 CARTOSAT 3","1 44804U 19081A   23169.81633448  .00004407  00000-0  21113-3 0  9993","2 44804  97.3459 227.7295 0011398  24.1326 336.0441 15.19383874197314"
"2.0","GENERATED VIA SPACE-TRACK.ORG API","2023-06-19T06:16:11","18 SPCS","CARTOSAT 3","2019-081A","EARTH","TEME","UTC","SGP4","2023-06-19T01:54:51.847200","15.19386424","0.00113660","97.3458","227.9858","23.2521","336.9226","0","U","44804","999","19730","0.00020547000000","0.00004287","0.0000000000000","6885.831","94.775","515.522","499.869","PAYLOAD","LARGE","IND","2019-11-27","SRI",null,"3936757","234250688","0 CARTOSAT 3","1 44804U 19081A   23170.07976675  .00004287  00000-0  20547-3 0  9991","2 44804  97.3458 227.9858 0011366  23.2521 336.9226 15.19386424197305"
"2.0","GENERATED VIA SPACE-TRACK.ORG API","2023-06-19T14:16:12","18 SPCS","CARTOSAT 3","2019-081A","EARTH","TEME","UTC","SGP4","2023-06-19T09:49:02.466048","15.19390135","0.00113320","97.3458","228.3062","22.1823","337.9900","0","U","44804","999","19735","0.00021150000000","0.00004415","0.0000000000000","6885.820","94.775","515.488","499.882","PAYLOAD","LARGE","IND","2019-11-27","SRI",null,"3937034","234257014","0 CARTOSAT 3","1 44804U 19081A   23170.40905632  .00004415  00000-0  21150-3 0  9997","2 44804  97.3458 228.3062 0011332  22.1823 337.9900 15.19390135197352"
